<kml xmlns="http://www.opengis.net/kml/2.2"><Document>
<Placemark>

  <Polygon>
<outerBoundaryIs>
  <LinearRing><coordinates>-96.45294951829072,45.26896004732879
-96.4531285220033,45.30078277486013
-96.48906593230966,45.35707155196686
-96.52178732976827,45.375645308684575
-96.54597318599708,45.3810502532495
-96.61975238673637,45.40888453288217
-96.68045443208867,45.41049920979882
-96.7313969069557,45.4570203333494
-96.76343208303278,45.52000791186276
-96.83545169478047,45.58608671110481
-96.85775174444876,45.60596277949991
-96.83864885973163,45.64750950945069
-96.7593127724046,45.68874457215597
-96.75035058352528,45.698782611550136
-96.67266577490244,45.732336585622605
-96.65222632147241,45.746809535391854
-96.6391271871375,45.77206659739695
-96.58308579308756,45.82002446794906
-96.57451776919714,45.8430983372302
-96.56133448503286,45.94565580302597
-96.57035088363136,45.96359548120399
-96.57672600861198,46.02212945960101
-96.55694046010602,46.06460127988744
-96.55795293119715,46.102442148819975
-96.58040809814698,46.151234116361195
-96.58361570299756,46.20118505148886
-96.59300000330869,46.214001990779124
-96.60027756471594,46.26222281374888
-96.59511245520979,46.273787068051355
-96.60144452944108,46.33116242811202
-96.62924235347572,46.35393357275351
-96.6660284484381,46.3745666432624
-96.68019185849552,46.40692594216863
-96.70361576446544,46.4174141193983
-96.71879324090379,46.440079373457344
-96.7135152928641,46.46514768814039
-96.73283794496591,46.478784083286655
-96.73425935618495,46.51226746908537
-96.74938325240915,46.54013878613609
-96.7438803507144,46.56719674448673
-96.77198543859936,46.59695339801515
-96.78460125298758,46.63027593511929
-96.79905691106443,46.65407239745504
-96.78769688044423,46.67822318279573
-96.78917542312087,46.70996264453789
-96.78109525786367,46.722047499792694
-96.78605949799501,46.769130801572985
-96.80254439856738,46.8115213130336
-96.77505918512225,46.840363624781254
-96.78395904236608,46.86166384639477
-96.76735837748946,46.88366354523321
-96.77355814727576,46.90356355467686
-96.76015772323332,46.91556322339695
-96.76175751765815,46.93466337374793
-96.79175830210286,46.92846410738207
-96.83483934049048,47.00725496323666
-96.81780678523249,47.05112761289422
-96.82623581330732,47.07646750606615
-96.81566645611348,47.10466400866239
-96.84021481446794,47.15058799014463
-96.82260824561315,47.17277220687946
-96.83933960592424,47.19628265754119
-96.83076118540284,47.20981045269844
-96.8407643940638,47.23373283495872
-96.83228106393352,47.246826588639344
-96.84419055749898,47.29247159051236
-96.8310972716659,47.305132177939974
-96.85405515213381,47.37262104617156
-96.83971170603014,47.39850934428928
-96.86183342735747,47.414337471183586
-96.85528526152073,47.43360001952211
-96.86308555351908,47.457930533711284
-96.84878126238071,47.49887391700854
-96.86804646684587,47.52903093909651
-96.8498553277534,47.56648441255944
-96.85115888019142,47.59881310079222
-96.8794965715674,47.62057718017386
-96.88574094360801,47.664267149975906
-96.89975711371271,47.690250115697125
-96.92042338912293,47.711069506354704
-96.91882713558392,47.72443451789695
-96.93524977904785,47.76574784874295
-96.96535028436061,47.784937035031184
-97.00535692470677,47.87017791359794
-97.02125619851135,47.872578061678
-97.02495560188515,47.89497853959944
-97.01775456657707,47.91977872795726
-97.05455462277799,47.94627973963293
-97.07128853391367,48.04579728062957
-97.09882955195418,48.071476811138496
-97.10255813304624,48.094502996793366
-97.12945375510037,48.13313302736919
-97.1465317440363,48.144055552267666
-97.14670388861215,48.17322379128943
-97.14975581469247,48.18582488705638
-97.13167284789606,48.207149513056564
-97.13929683736704,48.21675589996628
-97.13036381320636,48.25946577806208
-97.11657051039964,48.279661797885325
-97.13792661865381,48.311984200060074
-97.12674535999733,48.3421405850609
-97.15548170242346,48.363768173218666
-97.15721066544495,48.38573219115587
-97.13147910977146,48.4065869193483
-97.14923644173653,48.443358012361216
-97.14208014440598,48.46334820210922
-97.15279506695279,48.53027808950105
-97.16319736778168,48.54393973789382
-97.1670472774621,48.55747022914499
-97.14291519294035,48.58373290545849
-97.14302507485739,48.59862436556185
-97.10846651636088,48.63265852503038
-97.09872881695233,48.659250689668994
-97.10110284711871,48.680761721615475
-97.1369579566075,48.72620460551683
-97.13799569994008,48.74998457677448
-97.1579987731138,48.77689226841572
-97.16050674480714,48.80601118200552
-97.18213036408254,48.81524659092941
-97.17373576736315,48.852673743792046
-97.18993603219049,48.89538468213036
-97.21227363213093,48.90680699707261
-97.23754156020068,48.965341371787076
-97.22954699279198,49.00045407992916
-96.79885136989544,49.000185922970445
-96.40548807579782,49.00007265238605
-95.81846067268393,48.999674791363795
-95.32315091520694,48.99892817661181
-95.15319160175439,48.99886988264451
-95.15339106250114,49.38447884926401
-95.12870958228957,49.37045118399504
-95.05829916775959,49.35325431544294
-95.01419536146255,49.35647675390499
-94.98899475227655,49.36894060886224
-94.9520654140869,49.36873204542942
-94.85405230123308,49.3243399658298
-94.81625902310574,49.32139810720956
-94.82553121399633,49.29435385254004
-94.7973230068035,49.21434520003935
-94.79797265772986,49.1978589010824
-94.7727809514178,49.120505089783634
-94.74964614908473,49.098738031315584
-94.68345953345082,48.88412244952917
-94.69239857003224,48.86901634878451
-94.68558647152126,48.84005067402513
-94.70429540451039,48.82421699175711
-94.69090203003083,48.77800020463959
-94.65202194819133,48.75614536248406
-94.64144965437075,48.74121686238527
-94.61915995848356,48.73726352437162
-94.58765128623214,48.71757912370385
-94.55583870990485,48.71623672132478
-94.5390692042185,48.70270554089139
-94.45238192470863,48.69240335411683
-94.42996545465587,48.70114512279774
-94.38896648663932,48.71194666973484
-94.34313666352082,48.70340654710044
-94.3088178892964,48.71027252339287
-94.26109366545016,48.696596174782506
-94.24451935505608,48.653461781432675
-94.09126308469689,48.64364164222149
-94.0069718053416,48.64326204358397
-93.95302190220087,48.63409930130222
-93.84804688123921,48.63074348863822
-93.8214293763738,48.6091563876607
-93.80416009196193,48.570208272178746
-93.81849251305349,48.53141101812381
-93.79336932626819,48.516310213654236
-93.64731722945291,48.517669337840516
-93.54250598934898,48.529982366685836
-93.46738029952476,48.54645150130269
-93.45753770334277,48.567131724317896
-93.4671706247633,48.58840462315445
-93.43983911360809,48.59368383269799
-93.40349022713103,48.609971051960144
-93.37145608571099,48.605852730939006
-93.3486656785268,48.626451819908404
-93.2546535964548,48.64281126119449
-93.20753076717763,48.64250039846439
-93.17837863605072,48.62300409356771
-93.08849192223552,48.627700562311034
-92.98457697726684,48.62381048502562
-92.9497938863875,48.630320347463716
-92.95000895293332,48.60833941531864
-92.92955660152889,48.60692191752963
-92.72840771011823,48.53936934332231
-92.65784099632612,48.5462169927234
-92.63488294662308,48.54255595928969
-92.62507055469476,48.51290856188147
-92.63709618646153,48.49932781756965
-92.69867119213384,48.494838464342905
-92.71267830475678,48.46298042417768
-92.68811255310216,48.44370573860747
-92.65621834439705,48.43647256653788
-92.57654017615428,48.44059500019856
-92.50746755020494,48.44797858598371
-92.45639737248456,48.401105428894574
-92.47650463939966,48.371908337112515
-92.46976871478289,48.352091461867346
-92.43184292327697,48.3051712614486
-92.4156339597419,48.29508768278252
-92.38469431269634,48.24917881583108
-92.37516290233609,48.22595143477265
-92.31488461543583,48.24050320704283
-92.28039106091148,48.24436385081651
-92.30143071167522,48.28829738016853
-92.28883481765389,48.342811184157625
-92.26254723658958,48.3549136162907
-92.20671701482041,48.34564608772748
-92.16200090870348,48.363303700333105
-92.14370295372606,48.356020078519684
-92.09088950778683,48.354497005224445
-92.05521840070399,48.35936309206389
-92.04694337951511,48.334771356908696
-92.00011374076622,48.321095664784536
-92.0129841080567,48.29744315232538
-92.00652597628681,48.26540982475638
-91.95835227760337,48.23313446148004
-91.8931047632548,48.23798078059119
-91.86436000525129,48.206947165080834
-91.81545215149922,48.21181306739695
-91.79828772195867,48.20298046519891
-91.71536470411391,48.19950316758056
-91.69777693964537,48.141597106079125
-91.71175085099233,48.114649888160244
-91.65309783374954,48.109799357796504
-91.63991974676082,48.09711033711603
-91.58881955746185,48.10247381506242
-91.5694465231884,48.09369033812968
-91.57545919856574,48.04894049327344
-91.48818482875261,48.068378859700424
-91.45000108073998,48.069070529361674
-91.42957081898474,48.04865405183961
-91.3908868925509,48.05716510774016
-91.37082802876982,48.06973164185456
-91.28972983682334,48.07417602594589
-91.24969581171386,48.084092521576615
-91.2149036591052,48.102858623518514
-91.1900530860989,48.12510529972666
-91.1766058648125,48.12553853139661
-91.11473543127676,48.166490194508384
-91.08247121661779,48.18115083046345
-91.03110259591423,48.18882152443707
-90.97697855222088,48.21955508290316
-90.92640838837679,48.22979361477376
-90.88575484790154,48.245954320725154
-90.83929625281257,48.23955981040131
-90.83254503169543,48.17350797414785
-90.80408355232306,48.17781889152262
-90.79675664244235,48.139377742744315
-90.77640126505571,48.12399453476583
-90.76140730921222,48.098383701416935
-90.74145975984669,48.094564250167615
-90.6414975832147,48.10351690210522
-90.62705803031088,48.111769583024
-90.57576161515206,48.12062505079676
-90.55670294341984,48.0959308747962
-90.48669477757261,48.09905294555806
-90.46739119933173,48.10874436623134
-90.43845133938252,48.09867755445722
-90.4031555320977,48.10509665056133
-90.37476848447099,48.090954854965354
-90.30579084053466,48.105145844337294
-90.28924582613998,48.09906241261402
-90.2251690364652,48.108197988785236
-90.13256513552095,48.11160570432988
-90.09160639556835,48.10453329248527
-90.02333367498618,48.084672025528384
-89.99384505959948,48.04922513996451
-89.99382597701515,48.0280115520279
-89.89881524376929,47.98796726449818
-89.87135684584088,47.985772722199776
-89.83132546986128,47.99952194131825
-89.8207583650587,48.01481326329659
-89.76759946934203,48.02261273023245
-89.68811856116561,48.010818566497086
-89.62817078973555,48.01110764071434
-89.61717510086338,47.99622698552236
-89.65948245075077,47.96707730961698
-89.68896716965169,47.957226465117955
-89.6958331238902,47.94180648327691
-89.73733047352707,47.91711093634137
-89.79396490857248,47.891155732614465
-89.92944887722321,47.85961120727921
-89.92782026799465,47.85089520138614
-89.97898200523176,47.82939979600277
-90.0272882989682,47.81727882334119
-90.0712132767088,47.81143540513527
-90.1177103004425,47.794772658564085
-90.16531772028443,47.79177631477697
-90.18770532520612,47.77682394318417
-90.23177495083405,47.77593070809712
-90.35065111335389,47.745321893187295
-90.4371016020235,47.73163197608201
-90.44817450232547,47.722402286241945
-90.48542701742045,47.716844973723695
-90.54226762794863,47.699356077960694
-90.57963668897541,47.682515844408044
-90.73381393540636,47.625765145708776
-90.8903791605251,47.54452946527727
-90.93045946927106,47.51714789561791
-91.02308447903894,47.465012391472676
-91.04485963473616,47.45734069126425
-91.09713366603977,47.41385975766142
-91.12846742785882,47.3993055070546
-91.17439316528893,47.36042734387761
-91.21047739415043,47.31990826290919
-91.23963396303625,47.30415160102794
-91.24584061674892,47.287106969271505
-91.28611767135042,47.26716380833619
-91.35250419697732,47.216884185500085
-91.35546497257928,47.20704118559544
-91.40855627024486,47.181197168037386
-91.4807120418001,47.12426121835703
-91.50644053539989,47.11898784694749
-91.52030805073333,47.104603525758336
-91.57512806528683,47.088806906901965
-91.59768430855401,47.06207795795645
-91.61367428828437,47.05898095542902
-91.6850080393787,47.00659456185681
-91.6993967592775,47.007271255622705
-91.73826612359484,46.98202605021963
-91.78212337589494,46.944643803469525
-91.79449059388497,46.939697125919444
-91.81794643023248,46.92397743295586
-91.8418796001773,46.92502312790533
-91.91189846255386,46.88471822906028
-91.94926288250639,46.86847653183819
-91.99285973730562,46.842383827187945
-92.04601380009592,46.8184581811739
-92.08867155213085,46.79366142418995
-92.09147034249919,46.77832880197762
-92.03399036766099,46.70893977339236
-92.08949044412775,46.749240061249125
-92.13789072750478,46.7395405949502
-92.14629082048182,46.715940895662854
-92.18909197520823,46.717541302537256
-92.2056916374715,46.702541309406584
-92.17649180773206,46.69024113334929
-92.20549278849796,46.66474145809016
-92.21239251921097,46.64994132774304
-92.26599284153112,46.65104186268318
-92.29219287788192,46.66323523492558
-92.29286050923281,46.41738430265248
-92.29403382057083,46.07437721735115
-92.33533585102903,46.05942300603913
-92.35040797653919,46.016368507126785
-92.37271787578362,46.014199008631614
-92.4106497920236,46.02725931724104
-92.44225934482289,46.01617714560919
-92.47276152291361,45.97295196965911
-92.52518604291973,45.98386269890756
-92.54980645651327,45.96798631273612
-92.55118596388904,45.95224058242837
-92.63784187372765,45.93446915028753
-92.67573721744404,45.90747888405158
-92.70770228755357,45.89490177043813
-92.73844476503008,45.86137159360122
-92.73999144264748,45.84628383831541
-92.76568149958118,45.827252498275634
-92.75794806672118,45.81121668463629
-92.77961725113812,45.7825633288562
-92.78462197685222,45.764196773578064
-92.80983691008896,45.74417249058845
-92.84092556167072,45.730099384105344
-92.86919390803118,45.717568830189656
-92.88811464205385,45.62837713102525
-92.88374994730572,45.57548322552086
-92.87221606132573,45.5680132421428
-92.82330915479197,45.56093490038917
-92.77341221643746,45.568235069325695
-92.72608242224828,45.54111230965825
-92.72667702879676,45.51446282753628
-92.71286349118351,45.50484891547532
-92.68023444351395,45.46434473188082
-92.65269927766215,45.45452765150474
-92.64660220616,45.44163566298438
-92.65028682647198,45.39876689184924
-92.70405474546739,45.35366042363731
-92.6989671519988,45.33637482582302
-92.70996823518348,45.32130239027504
-92.74540773642106,45.29620614347501
-92.76061592133468,45.27882777917596
-92.75170835729294,45.21866641203152
-92.76680814200748,45.18546651815613
-92.75320767886258,45.17476667778155
-92.74493862572848,45.1083100522143
-92.7903380399096,45.08055587464608
-92.80291159504006,45.065403912031414
-92.78791020304067,45.04351598166614
-92.76195352255029,45.022100286730776
-92.77123178502258,45.00137815076271
-92.7694450128143,44.97215040622783
-92.75064593215723,44.937299483809085
-92.75955695690384,44.9078574622445
-92.77394621291383,44.8899975614582
-92.76338664347516,44.87292243797869
-92.76527830503649,44.84107059921577
-92.78520663825344,44.79230365293956
-92.80528698081145,44.768361631492034
-92.80241430791006,44.74572529255092
-92.73228808047362,44.713735803592776
-92.66469932269214,44.6633804382122
-92.62173316964348,44.63898340904167
-92.62234300474032,44.61614145488449
-92.58159097274897,44.60082466117294
-92.56943395013455,44.60353949403492
-92.54201829504015,44.56696253319933
-92.518358849219,44.575183708074476
-92.49380852644694,44.56606375180189
-92.45510559241873,44.5618866594491
-92.43252801265203,44.56570560139847
-92.3915452599202,44.55764360218624
-92.3475669417263,44.55714947567998
-92.31735779723157,44.542512565476656
-92.29848444872385,44.494621697383884
-92.28236465928889,44.477707594178305
-92.24201082094338,44.454224782813455
-92.22108383189362,44.440386436258635
-92.12367865194568,44.42184014647698
-92.11288521894558,44.41457213322973
-92.05354913476025,44.401375941432946
-92.03814749533392,44.388731745958445
-91.95999640209965,44.359797006103314
-91.92827823530509,44.3354963753909
-91.9143602154009,44.30823025934741
-91.92028218041828,44.286496115870364
-91.89696409611827,44.27567191017942
-91.8871895651466,44.25251364285618
-91.89296389059614,44.23514965913666
-91.87515812594908,44.20057523838742
-91.85859929986808,44.19317997922009
-91.8291681953271,44.17835089947328
-91.81730248991363,44.16423574861802
-91.75174690056527,44.13478642406782
-91.7105971692516,44.12048033059438
-91.7074908184452,44.10390628441327
-91.68153058561198,44.09740014219336
-91.64644619671088,44.06333710239911
-91.60501554362399,44.04530599553257
-91.58260476573649,44.02738111024155
-91.50712141013783,44.01898021888656
-91.48087131025834,44.00814514964588
-91.44056362840699,44.00150908746386
-91.40601110125881,43.963929479295786
-91.36473616182177,43.93488485333436
-91.3567418495389,43.91656412305638
-91.32060557415419,43.88849172772069
-91.3112667718001,43.867832112398105
-91.28420229811648,43.84712334848698
-91.262436617252,43.792166918346176
-91.24413525090642,43.77466733612046
-91.25516087913155,43.731992716400235
-91.26845538776921,43.70982460439614
-91.27174972285138,43.65492982241862
-91.2638558557502,43.64766304265122
-91.26874777744231,43.61534862042826
-91.23270729231903,43.583533466056885
-91.24382119306695,43.54913021355984
-91.21770884072183,43.50063142382301
-91.45174517460039,43.50060939123429
-91.7303896644084,43.500699232251506
-91.94968052645997,43.50058145456634
-92.44906523453449,43.50045859025914
-92.68567346353939,43.50006134745914
-93.04940754914874,43.49971058939433
-93.26901620786569,43.49953473335677
-93.64864167590298,43.49963015616331
-93.84856040271998,43.49961875842451
-94.24793717721201,43.500281992934624
-94.57241961980972,43.50039240401171
-94.85447930114273,43.50090513210811
-95.1348973675679,43.5011299139722
-95.45441015257131,43.50064436423246
-95.49784592160977,43.500024733792245
-95.90382367448358,43.49993484471929
-96.05313879095227,43.50030161271062
-96.45304996929578,43.50037516966232
-96.45326418154474,43.84958906293644
-96.45277460920842,44.19704576314227
-96.45186416411623,44.458325239209
-96.4517559273863,44.63130031837344
-96.451763295244,44.805375211969654
-96.4521861636895,44.962666023177896
-96.45294951829072,45.26896004732879</coordinates></LinearRing></outerBoundaryIs></Polygon></Placemark></Document></kml>