<kml xmlns="http://www.opengis.net/kml/2.2"><Document>
<Placemark>
<ExtendedData>
  <Data name="AFFGEOID"><value>0100000US</value></Data>
  <Data name="GEOID"><value>US</value></Data>
  <Data name="NAME"><value>United States</value></Data></ExtendedData>
  <Polygon>
<outerBoundaryIs>
  <LinearRing><coordinates>-124.72583900000001,48.386012
-124.653243,48.390691
-124.05073399999999,48.177747
-123.004128,48.090516
-122.76044799999998,48.14324
-122.642597,48.588339
-122.75802,49.002356999999996
-121.751252,48.997398999999994
-120.001199,48.999418
-118.83661303558,49.0003077592976
-117.032351,48.999188
-115.207912,48.999227999999995
-113.692982,48.997632
-111.500812,48.996963
-110.171595,48.999261999999995
-109.000708,48.999234
-107.44101700000002,48.999363
-106.050543,48.999207
-104.87552700000002,48.998991
-103.375467,48.998951
-102.216993,48.998553
-101.12543400000001,48.999078
-99.91377999999999,48.999049
-98.86903699999999,49.000205
-96.93096,48.999984
-95.153711,48.998903
-95.153314,49.384358
-94.816222,49.320986999999995
-94.68306899999999,48.883928999999995
-94.694312,48.789352
-94.446604,48.6929
-93.844008,48.629394999999995
-93.81517799999999,48.526508
-93.46750399999999,48.545663999999995
-93.207398,48.642474
-92.954876,48.631493
-92.26227999999999,48.354932999999996
-92.055228,48.359213
-91.980772,48.247800999999995
-91.71493099999999,48.19913
-91.542512,48.053267999999996
-91.250112,48.084087
-90.84362399999999,48.243576
-90.70370199999999,48.096008999999995
-90.136191,48.112136
-89.86815299999999,47.989898
-89.974296,47.830514
-90.537105,47.703055
-90.86827,47.5569
-91.456965,47.139156
-92.06208800000002,46.804038000000006
-91.820027,46.690176
-91.16760099999999,46.84476000000001
-90.924128,47.001888
-90.745305,46.894254
-90.88084099999999,46.739957
-90.755287,46.646288999999996
-90.437596,46.561492
-90.04542,46.668271999999995
-89.83195599999999,46.804052999999996
-89.41515400000002,46.843982999999994
-88.88914,47.100575
-88.217822,47.448738
-87.929269,47.478736999999995
-87.94336,47.335899
-88.19421799999999,47.209241999999996
-88.455404,46.923321
-88.143688,46.966665
-87.59530699999999,46.78295
-87.366767,46.507303
-86.97695800000001,46.526581
-86.81096699999999,46.449663
-86.55773099999999,46.487434
-86.138295,46.672934999999995
-85.48209600000001,46.680431999999996
-85.25686,46.75338
-85.028291,46.675125
-84.969464,46.476290000000006
-84.117925,46.517618999999996
-84.114941,46.174113999999996
-83.882303,46.042065
-83.598612,46.090084999999995
-83.526347,45.918636
-84.08007099999999,45.970822
-84.376429,45.931962
-84.63285499999999,45.951007
-84.792763,45.858691
-85.15202699999999,46.050725
-85.540858,46.079581
-85.697203,45.960158
-85.913769,45.919439
-86.27800700000002,45.942057
-86.54142999999999,45.708110000000005
-86.773279,45.811385
-86.964275,45.672761
-87.172241,45.661788
-87.548964,45.191590999999995
-87.630298,44.976865
-87.812989,44.954012999999996
-87.983494,44.720196
-87.77516000000001,44.639281
-87.581306,44.851791
-87.446477,44.886109
-87.264877,45.081361
-87.06315699999999,45.079316
-87.446963,44.586274
-87.54538199999999,44.32138500000001
-87.507419,44.210803
-87.655183,44.081894
-87.73601699999999,43.873720999999996
-87.706204,43.679542
-87.889207,43.307652
-87.895784,43.015814
-87.76667499999999,42.784896
-87.81467400000001,42.64402
-87.834769,42.301522
-87.68235899999999,42.075728999999995
-87.52404399999999,41.708335
-87.26153599999999,41.620335999999995
-86.824828,41.760239999999996
-86.597899,41.918290999999996
-86.356218,42.254166
-86.240642,42.54
-86.208309,42.762789
-86.254646,43.083408999999996
-86.540787,43.644593
-86.431198,43.84072
-86.514702,44.058119
-86.26871,44.345324
-86.248474,44.699046
-86.089186,44.741496
-86.05886199999999,44.911012
-85.780439,44.977931999999996
-85.633124,45.170899
-85.520034,44.973996
-85.380659,45.046319
-85.37159299999999,45.270834
-85.040936,45.436701
-85.119737,45.569026
-84.866976,45.752066
-84.718904,45.777598999999995
-84.46168,45.652404
-84.196043,45.621455999999995
-84.095905,45.497298
-83.909472,45.485783999999995
-83.385104,45.274195
-83.265896,45.026844
-83.320503,44.880570999999996
-83.276836,44.689353999999994
-83.33698799999999,44.332919
-83.524817,44.261558
-83.58408999999999,44.056748
-83.869406,43.960719
-83.94774,43.735164999999995
-83.683351,43.590584
-83.51234,43.733726
-83.407146,43.919807
-82.928884,44.069389
-82.793205,44.023247
-82.633641,43.831224
-82.52308599999999,43.225361
-82.415937,43.005555
-82.509935,42.637294
-82.679059,42.52221
-82.85931599999999,42.541935
-82.92397,42.352067999999996
-83.096521,42.290138
-83.133511,42.088142999999995
-83.44166799999999,41.808645999999996
-83.326825,41.701561999999996
-82.93436899999999,41.514353
-82.83410099999999,41.587587
-82.616952,41.428425
-82.460599,41.386316
-81.994565,41.51444
-81.73875500000001,41.48855
-81.286925,41.760242999999996
-80.329976,42.036167999999996
-79.627484,42.324686
-79.13856899999999,42.564462
-79.04885999999999,42.689158
-78.851355,42.791758
-78.909159,42.933257
-79.074467,43.077855
-79.070469,43.262454
-78.547395,43.369541
-78.145195,43.37551
-77.76023099999999,43.341161
-77.551022,43.235763
-77.341092,43.280660999999995
-76.952174,43.270692
-76.68485600000001,43.352691
-76.417581,43.521285
-76.235834,43.529256
-76.22926799999999,43.804134999999995
-76.412138,43.925675999999996
-76.286547,44.203773
-75.94954,44.349129
-75.76623,44.515851
-75.255517,44.857651
-74.83466899999999,45.014683
-74.23413599999999,44.992148
-73.048386,45.014790000000005
-72.348583,45.005624999999995
-71.501088,45.013377
-71.405636,45.198139000000005
-71.182587,45.241068999999996
-71.012757,45.34476
-70.84443,45.234513
-70.781471,45.431159
-70.55279300000001,45.667836
-70.259117,45.890755
-70.290896,46.185838
-70.053748,46.429235999999996
-69.997086,46.695229999999995
-69.219996,47.457159
-69.039301,47.42217
-69.0402,47.2451
-68.90098499999999,47.178518999999994
-68.361559,47.355605
-68.204263,47.339729999999996
-67.789761,47.065743999999995
-67.779984,45.938163
-67.803313,45.677886
-67.534919,45.595428
-67.417417,45.501985
-67.480256,45.268184999999995
-67.112414,45.112322999999996
-66.949895,44.817419
-67.293403,44.599264999999995
-67.44851299999999,44.600322
-67.855108,44.419433999999995
-68.125624,44.387127
-68.438518,44.11618
-69.077028,43.973653999999996
-69.32103099999999,43.856708
-69.915593,43.77511200000001
-70.168227,43.675135999999995
-70.416311,43.361059
-70.553854,43.321886
-70.59618499999999,43.163466
-70.798636,42.924288
-70.80521999999999,42.781797999999995
-70.654727,42.582234
-70.974897,42.355843
-70.73056,42.21094
-70.662476,41.960592
-70.54102999999999,41.815754
-70.272289,41.721346
-70.32158799999999,41.630508
-70.734306,41.486335
-70.91016499999999,41.577073
-71.19301999999999,41.457930999999995
-71.428652,41.454158
-71.555381,41.373315999999996
-72.547235,41.250499
-72.93564599999999,41.258497
-73.42216499999999,41.047562
-73.22928499999999,40.905121
-73.110368,40.971938
-72.58532699999999,40.997586999999996
-72.35412300000002,41.139952
-72.283093,41.067873999999996
-71.936977,41.006136999999995
-73.012545,40.679651
-73.507325,40.593410999999996
-73.940591,40.542896
-74.057316,40.597546
-74.260611,40.502435999999996
-73.971381,40.348009999999995
-74.101443,39.756173
-74.41269199999999,39.360816
-74.64659499999999,39.212002
-74.86445800000001,38.94041
-74.885914,39.143626999999995
-75.136667,39.181883
-75.442393,39.402291
-75.396277,39.057884
-75.30407799999999,38.91316
-75.089473,38.797198
-75.04893899999999,38.451263
-75.19379599999999,38.096013
-75.38063799999999,37.851701999999996
-75.551898,37.748121999999995
-75.658379,37.451815
-75.817387,37.193436999999996
-75.979608,37.100448
-76.02347499999999,37.289066999999996
-75.941182,37.563839
-75.818125,37.791698
-75.70291399999999,37.849658999999996
-75.86381,38.100968
-75.888513,38.241423
-76.217613,38.305682999999995
-76.33636,38.492235
-76.361727,38.939175
-76.23345700000002,39.091384999999995
-76.425281,39.205708
-76.45027999999999,38.941113
-76.558743,38.756352
-76.517506,38.539148999999995
-76.393378,38.38947700000001
-76.392668,38.23966300000001
-76.613939,38.148587
-76.427487,37.977038
-76.23672499999999,37.889174
-76.32912,37.670975999999996
-76.25045399999999,37.421886
-76.394132,37.22515
-76.271262,37.084544
-76.267962,36.964547
-75.996252,36.922047
-75.79641,36.290351
-75.49608599999999,35.728515
-75.458659,35.596596999999996
-75.533627,35.225825
-75.91298499999999,35.1196
-76.137269,34.987857999999996
-76.450454,34.71445
-76.535946,34.588577
-76.726969,34.69669
-77.136843,34.632926
-77.63503399999999,34.359555
-77.82920899999999,34.162618
-77.960172,33.853314999999995
-78.136952,33.912178
-78.38396399999999,33.901945999999995
-78.67226,33.817586999999996
-78.938076,33.639826
-79.135441,33.403867
-79.215453,33.155569
-79.359961,33.006672
-79.569762,32.926691999999996
-79.868352,32.734849
-80.000801,32.605892
-80.338354,32.47873
-80.45519200000001,32.326457999999995
-80.858735,32.09958100000001
-80.848441,31.988278999999995
-81.130634,31.722692000000002
-81.304957,31.206173
-81.402096,31.125383
-81.460061,30.769911999999998
-81.39640700000001,30.340040000000002
-81.256711,29.784693
-80.96617599999999,29.14796
-80.583884,28.597704999999998
-80.525094,28.459453999999997
-80.60687399999999,28.336484
-80.547675,28.048795
-80.383695,27.740045
-80.046263,26.859237999999998
-80.03886299999999,26.569347
-80.109566,26.087165
-80.10995299999999,25.81826
-80.301464,25.613298999999998
-80.358183,25.153228000000002
-80.49539399999999,25.199807999999997
-80.81213300000002,25.186038999999997
-81.079859,25.118796999999997
-81.170907,25.245856999999997
-81.146765,25.407577
-81.38381,25.776751
-81.727086,25.907207
-81.84455500000001,26.327712
-81.923611,26.436657999999998
-82.180717,26.476257
-82.264682,26.756836
-82.53971899999999,27.254326
-82.69182099999999,27.437217999999998
-82.705017,27.62531
-82.846526,27.854301
-82.859624,28.174135
-82.76410299999999,28.244345000000003
-82.656694,28.544814
-82.730245,28.850154999999994
-82.688864,28.905609
-82.82365899999999,29.098902
-83.16957599999999,29.290355
-83.240509,29.433177999999998
-83.401552,29.523291
-83.414701,29.670536000000002
-83.537645,29.723060000000004
-83.67921899999999,29.918513
-84.06299,30.101378
-84.289727,30.057197
-84.564976,29.810180000000003
-85.045074,29.586990999999994
-85.259719,29.681296000000003
-85.352615,29.659786999999998
-85.38472999999999,29.920949000000004
-85.999937,30.27078
-86.222561,30.343584999999997
-86.632953,30.396299000000003
-87.319518,30.317814
-87.818867,30.228313999999997
-87.796717,30.324198
-87.93335499999999,30.487357
-87.93106999999999,30.652694
-88.061998,30.644890999999998
-88.136173,30.320728999999996
-88.36402199999999,30.388005999999997
-88.471875,30.32002
-88.89393,30.393398
-89.344746,30.293195999999995
-89.447465,30.205097999999996
-89.84506499999999,30.01841
-89.701725,29.874085
-89.44461799999999,30.060958999999993
-89.185799,30.063934000000003
-89.23629799999999,29.877080999999997
-89.39916199999999,29.770592
-89.403956,29.681808000000004
-89.602109,29.610294999999997
-89.48231799999999,29.406222
-89.200389,29.344417999999994
-89.01428,29.166913
-89.148792,29.02967
-89.361098,29.071848000000003
-89.482844,29.215052999999994
-89.842641,29.318823
-90.223587,29.085075
-90.442734,29.056052999999995
-90.867853,29.056064000000003
-90.94187699999999,29.162373
-91.27879200000001,29.247775999999998
-91.394307,29.497114999999994
-91.531021,29.531543000000003
-91.66712799999999,29.745822
-91.85307,29.702935999999998
-91.711081,29.569328000000002
-91.821579,29.473924999999998
-92.06451299999999,29.585665
-92.32346500000001,29.531496999999998
-92.68448599999999,29.605001
-93.17693,29.770487
-93.74194800000001,29.736343
-94.056506,29.671163
-94.594853,29.467903000000003
-94.72252999999999,29.331446
-95.026219,29.148063999999998
-95.38239,28.866348
-96.194412,28.502224
-96.442849,28.317666
-96.63201,28.222821
-96.88645900000002,28.030734000000002
-97.14085399999999,27.716687999999998
-97.296057,27.427175
-97.378697,27.060043999999998
-97.32275,26.701746
-97.196935,26.305864999999997
-97.145567,25.971131999999997
-97.338346,25.923125
-97.422636,25.840377999999998
-97.64401099999999,26.006614
-97.79529099999999,26.055218
-98.197046,26.056153
-98.44253599999999,26.199151
-98.65422099999999,26.23596
-98.80734799999999,26.369421
-99.110855,26.426278
-99.268613,26.843213
-99.44697000000001,27.026026
-99.42998399999999,27.159149
-99.529654,27.306051
-99.487521,27.412395999999998
-99.556812,27.614335999999998
-99.704601,27.654954
-99.844737,27.778809
-99.932161,27.96771
-100.075474,28.124882
-100.267604,28.250269
-100.39727,28.575637
-100.500354,28.66196
-100.627206,28.903734000000004
-100.674656,29.099777
-101.060151,29.458661
-101.254895,29.520342
-101.400636,29.738079
-101.966167,29.807343
-102.073646,29.786926
-102.301381,29.877674
-102.392906,29.765569
-102.677192,29.738260999999994
-102.808692,29.522319
-102.871347,29.241625000000003
-103.076355,29.085721999999997
-103.12674800000002,28.982124
-103.28119,28.982138
-103.789034,29.257502000000002
-104.143692,29.383277999999997
-104.539761,29.676074000000003
-104.672327,29.911112
-104.702788,30.211736
-104.859521,30.390413
-104.889376,30.535144
-105.00124,30.672583
-105.314863,30.816961
-105.773257,31.166896999999995
-105.953943,31.364749000000003
-106.175675,31.456278999999995
-106.41794,31.752008999999994
-106.53173100000001,31.78391
-108.208394,31.783599000000002
-108.208573,31.333395
-109.829689,31.334066999999997
-111.074825,31.332238999999998
-112.365043,31.741130000000002
-113.750756,32.169005
-114.81361299999999,32.494277
-114.71963300000002,32.718762999999996
-115.465164,32.667100000000005
-117.12486200000001,32.534155999999996
-117.28217000000001,32.839546999999996
-117.28077,33.012343
-117.44558300000001,33.268516999999996
-117.64558199999999,33.440728
-118.13269800000002,33.753217
-118.396606,33.735917
-118.41270800000001,33.883913
-118.51951399999999,34.027509
-118.805114,34.001239
-119.10978399999998,34.094566
-119.270144,34.252902999999996
-119.616862,34.420995
-119.873971,34.408795
-120.14116500000002,34.473405
-120.451425,34.447094
-120.64573899999999,34.581035
-120.61026599999998,34.85818
-120.670835,34.904115
-120.63578699999998,35.123805
-120.89679,35.247876999999995
-120.88475700000002,35.430195999999995
-121.003359,35.46071
-121.16671199999999,35.635399
-121.272322,35.666711
-121.680145,36.16581800000001
-121.88849100000002,36.30281000000001
-121.970427,36.582754
-121.860604,36.611135999999995
-121.791544,36.815186
-121.906468,36.96895
-122.105976,36.955951
-122.397065,37.187249
-122.40132299999999,37.337008999999995
-122.516689,37.521339999999995
-122.51198299999999,37.77113
-122.39813900000001,37.80563
-122.360219,37.592501
-122.16844900000001,37.504143
-122.163049,37.667933
-122.312974,37.777243999999996
-122.26286099999999,38.051473
-122.39358799999998,38.143449
-122.53728499999998,37.830328
-122.93971100000002,38.031908
-123.004122,38.297011999999995
-123.166428,38.474947
-123.71053999999998,38.91323
-123.69074000000002,39.021293
-123.82533100000002,39.360814
-123.76647499999999,39.552803
-123.85171400000002,39.832041
-124.087086,40.078441999999995
-124.36341400000002,40.260974
-124.409591,40.438075999999995
-124.118147,40.989263
-124.163988,41.138675
-124.063076,41.439578999999995
-124.15424600000001,41.728801
-124.245027,41.792300000000004
-124.21160499999999,41.99846
-124.41098200000002,42.250547
-124.413119,42.657934
-124.552441,42.840568
-124.38246000000001,43.27016700000001
-124.23353399999999,43.55713
-124.150267,43.910849999999996
-124.06500799999999,44.632504
-124.07406600000002,44.798106999999995
-123.975425,45.145475999999995
-123.93944800000001,45.708794999999995
-123.96762999999999,45.907807
-123.875525,46.239787
-124.080671,46.267239
-124.08098300000002,46.735003
-124.236349,47.287287
-124.31937899999998,47.355559
-124.41210600000001,47.691199
-124.67242700000001,47.964414
-124.72583900000001,48.386012</coordinates></LinearRing></outerBoundaryIs></Polygon></Placemark></Document></kml>